ONEWEB-0349             
1 49281U 21090C   24203.62891638  .00000044  00000+0  76529-4 0  9990
2 49281  87.9185  52.8235 0001848  82.5105 277.6238 13.20770275139306
ONEWEB-0353             
1 49282U 21090D   24203.64638023 -.00000088  00000+0 -27097-3 0  9995
2 49282  87.8936  68.0738 0001842  72.4548 287.6783 13.14503979136200
ONEWEB-0356             
1 49283U 21090E   24203.62733827  .00000059  00000+0  11361-3 0  9995
2 49283  87.9185  52.8181 0002675  91.8500 268.2940 13.20771377139309
ONEWEB-0358             
1 49284U 21090F   24203.58156697  .00000030  00000+0  41844-4 0  9994
2 49284  87.9185  52.8141 0001942  92.8072 267.3283 13.20771343138736
ONEWEB-0359             
1 49285U 21090G   24203.65415916  .00000026  00000+0  32791-4 0  9991
2 49285  87.9183  52.8174 0001503  99.6215 260.5088 13.20770452138725
ONEWEB-0360             
1 49286U 21090H   24204.09923104  .00000108  00000+0  23428-3 0  9991
2 49286  87.9186  52.7335 0001694  86.8247 273.3080 13.20773229139383
ONEWEB-0361             
1 49287U 21090J   24203.54999555  .00000078  00000+0  16077-3 0  9992
2 49287  87.9184  52.8375 0001945  83.9609 276.1746 13.20772585138479
ONEWEB-0362             
1 49288U 21090K   24203.70977966  .00000054  00000+0  10201-3 0  9990
2 49288  87.9131  83.3734 0001496  73.0949 287.0347 13.19724202135182
