<?xml version="1.0" encoding="UTF-8"?>
<ndm xmlns:xsi="http://www.w3.org/2001/XMLSchema-instance" xsi:noNamespaceSchemaLocation="https://sanaregistry.org/r/ndmxml_unqualified/ndmxml-2.0.0-master-2.0.xsd">
<omm id="CCSDS_OMM_VERS" version="2.0">
<header><CREATION_DATE/><ORIGINATOR/></header><body><segment><metadata><OBJECT_NAME>ONEWEB-0349</OBJECT_NAME><OBJECT_ID>2021-090C</OBJECT_ID><CENTER_NAME>EARTH</CENTER_NAME><REF_FRAME>TEME</REF_FRAME><TIME_SYSTEM>UTC</TIME_SYSTEM><MEAN_ELEMENT_THEORY>SGP4</MEAN_ELEMENT_THEORY></metadata><data><meanElements><EPOCH>2024-07-21T15:05:38.375232</EPOCH><MEAN_MOTION>13.20770275</MEAN_MOTION><ECCENTRICITY>.0001848</ECCENTRICITY><INCLINATION>87.9185</INCLINATION><RA_OF_ASC_NODE>52.8235</RA_OF_ASC_NODE><ARG_OF_PERICENTER>82.5105</ARG_OF_PERICENTER><MEAN_ANOMALY>277.6238</MEAN_ANOMALY></meanElements><tleParameters><EPHEMERIS_TYPE>0</EPHEMERIS_TYPE><CLASSIFICATION_TYPE>U</CLASSIFICATION_TYPE><NORAD_CAT_ID>49281</NORAD_CAT_ID><ELEMENT_SET_NO>999</ELEMENT_SET_NO><REV_AT_EPOCH>13930</REV_AT_EPOCH><BSTAR>.76529E-4</BSTAR><MEAN_MOTION_DOT>.44E-6</MEAN_MOTION_DOT><MEAN_MOTION_DDOT>0</MEAN_MOTION_DDOT></tleParameters></data></segment></body></omm>
<omm id="CCSDS_OMM_VERS" version="2.0">
<header><CREATION_DATE/><ORIGINATOR/></header><body><segment><metadata><OBJECT_NAME>ONEWEB-0353</OBJECT_NAME><OBJECT_ID>2021-090D</OBJECT_ID><CENTER_NAME>EARTH</CENTER_NAME><REF_FRAME>TEME</REF_FRAME><TIME_SYSTEM>UTC</TIME_SYSTEM><MEAN_ELEMENT_THEORY>SGP4</MEAN_ELEMENT_THEORY></metadata><data><meanElements><EPOCH>2024-07-21T15:30:47.251872</EPOCH><MEAN_MOTION>13.14503979</MEAN_MOTION><ECCENTRICITY>.0001842</ECCENTRICITY><INCLINATION>87.8936</INCLINATION><RA_OF_ASC_NODE>68.0738</RA_OF_ASC_NODE><ARG_OF_PERICENTER>72.4548</ARG_OF_PERICENTER><MEAN_ANOMALY>287.6783</MEAN_ANOMALY></meanElements><tleParameters><EPHEMERIS_TYPE>0</EPHEMERIS_TYPE><CLASSIFICATION_TYPE>U</CLASSIFICATION_TYPE><NORAD_CAT_ID>49282</NORAD_CAT_ID><ELEMENT_SET_NO>999</ELEMENT_SET_NO><REV_AT_EPOCH>13620</REV_AT_EPOCH><BSTAR>-.27097E-3</BSTAR><MEAN_MOTION_DOT>-.88E-6</MEAN_MOTION_DOT><MEAN_MOTION_DDOT>0</MEAN_MOTION_DDOT></tleParameters></data></segment></body></omm>
<omm id="CCSDS_OMM_VERS" version="2.0">
<header><CREATION_DATE/><ORIGINATOR/></header><body><segment><metadata><OBJECT_NAME>ONEWEB-0356</OBJECT_NAME><OBJECT_ID>2021-090E</OBJECT_ID><CENTER_NAME>EARTH</CENTER_NAME><REF_FRAME>TEME</REF_FRAME><TIME_SYSTEM>UTC</TIME_SYSTEM><MEAN_ELEMENT_THEORY>SGP4</MEAN_ELEMENT_THEORY></metadata><data><meanElements><EPOCH>2024-07-21T15:03:22.026528</EPOCH><MEAN_MOTION>13.20771377</MEAN_MOTION><ECCENTRICITY>.0002675</ECCENTRICITY><INCLINATION>87.9185</INCLINATION><RA_OF_ASC_NODE>52.8181</RA_OF_ASC_NODE><ARG_OF_PERICENTER>91.8500</ARG_OF_PERICENTER><MEAN_ANOMALY>268.2940</MEAN_ANOMALY></meanElements><tleParameters><EPHEMERIS_TYPE>0</EPHEMERIS_TYPE><CLASSIFICATION_TYPE>U</CLASSIFICATION_TYPE><NORAD_CAT_ID>49283</NORAD_CAT_ID><ELEMENT_SET_NO>999</ELEMENT_SET_NO><REV_AT_EPOCH>13930</REV_AT_EPOCH><BSTAR>.11361E-3</BSTAR><MEAN_MOTION_DOT>.59E-6</MEAN_MOTION_DOT><MEAN_MOTION_DDOT>0</MEAN_MOTION_DDOT></tleParameters></data></segment></body></omm>
<omm id="CCSDS_OMM_VERS" version="2.0">
<header><CREATION_DATE/><ORIGINATOR/></header><body><segment><metadata><OBJECT_NAME>ONEWEB-0358</OBJECT_NAME><OBJECT_ID>2021-090F</OBJECT_ID><CENTER_NAME>EARTH</CENTER_NAME><REF_FRAME>TEME</REF_FRAME><TIME_SYSTEM>UTC</TIME_SYSTEM><MEAN_ELEMENT_THEORY>SGP4</MEAN_ELEMENT_THEORY></metadata><data><meanElements><EPOCH>2024-07-21T13:57:27.386208</EPOCH><MEAN_MOTION>13.20771343</MEAN_MOTION><ECCENTRICITY>.0001942</ECCENTRICITY><INCLINATION>87.9185</INCLINATION><RA_OF_ASC_NODE>52.8141</RA_OF_ASC_NODE><ARG_OF_PERICENTER>92.8072</ARG_OF_PERICENTER><MEAN_ANOMALY>267.3283</MEAN_ANOMALY></meanElements><tleParameters><EPHEMERIS_TYPE>0</EPHEMERIS_TYPE><CLASSIFICATION_TYPE>U</CLASSIFICATION_TYPE><NORAD_CAT_ID>49284</NORAD_CAT_ID><ELEMENT_SET_NO>999</ELEMENT_SET_NO><REV_AT_EPOCH>13873</REV_AT_EPOCH><BSTAR>.41844E-4</BSTAR><MEAN_MOTION_DOT>.3E-6</MEAN_MOTION_DOT><MEAN_MOTION_DDOT>0</MEAN_MOTION_DDOT></tleParameters></data></segment></body></omm>
<omm id="CCSDS_OMM_VERS" version="2.0">
<header><CREATION_DATE/><ORIGINATOR/></header><body><segment><metadata><OBJECT_NAME>ONEWEB-0359</OBJECT_NAME><OBJECT_ID>2021-090G</OBJECT_ID><CENTER_NAME>EARTH</CENTER_NAME><REF_FRAME>TEME</REF_FRAME><TIME_SYSTEM>UTC</TIME_SYSTEM><MEAN_ELEMENT_THEORY>SGP4</MEAN_ELEMENT_THEORY></metadata><data><meanElements><EPOCH>2024-07-21T15:41:59.351424</EPOCH><MEAN_MOTION>13.20770452</MEAN_MOTION><ECCENTRICITY>.0001503</ECCENTRICITY><INCLINATION>87.9183</INCLINATION><RA_OF_ASC_NODE>52.8174</RA_OF_ASC_NODE><ARG_OF_PERICENTER>99.6215</ARG_OF_PERICENTER><MEAN_ANOMALY>260.5088</MEAN_ANOMALY></meanElements><tleParameters><EPHEMERIS_TYPE>0</EPHEMERIS_TYPE><CLASSIFICATION_TYPE>U</CLASSIFICATION_TYPE><NORAD_CAT_ID>49285</NORAD_CAT_ID><ELEMENT_SET_NO>999</ELEMENT_SET_NO><REV_AT_EPOCH>13872</REV_AT_EPOCH><BSTAR>.32791E-4</BSTAR><MEAN_MOTION_DOT>.26E-6</MEAN_MOTION_DOT><MEAN_MOTION_DDOT>0</MEAN_MOTION_DDOT></tleParameters></data></segment></body></omm>
<omm id="CCSDS_OMM_VERS" version="2.0">
<header><CREATION_DATE/><ORIGINATOR/></header><body><segment><metadata><OBJECT_NAME>ONEWEB-0360</OBJECT_NAME><OBJECT_ID>2021-090H</OBJECT_ID><CENTER_NAME>EARTH</CENTER_NAME><REF_FRAME>TEME</REF_FRAME><TIME_SYSTEM>UTC</TIME_SYSTEM><MEAN_ELEMENT_THEORY>SGP4</MEAN_ELEMENT_THEORY></metadata><data><meanElements><EPOCH>2024-07-22T02:22:53.561856</EPOCH><MEAN_MOTION>13.20773229</MEAN_MOTION><ECCENTRICITY>.0001694</ECCENTRICITY><INCLINATION>87.9186</INCLINATION><RA_OF_ASC_NODE>52.7335</RA_OF_ASC_NODE><ARG_OF_PERICENTER>86.8247</ARG_OF_PERICENTER><MEAN_ANOMALY>273.3080</MEAN_ANOMALY></meanElements><tleParameters><EPHEMERIS_TYPE>0</EPHEMERIS_TYPE><CLASSIFICATION_TYPE>U</CLASSIFICATION_TYPE><NORAD_CAT_ID>49286</NORAD_CAT_ID><ELEMENT_SET_NO>999</ELEMENT_SET_NO><REV_AT_EPOCH>13938</REV_AT_EPOCH><BSTAR>.23428E-3</BSTAR><MEAN_MOTION_DOT>.108E-5</MEAN_MOTION_DOT><MEAN_MOTION_DDOT>0</MEAN_MOTION_DDOT></tleParameters></data></segment></body></omm>
<omm id="CCSDS_OMM_VERS" version="2.0">
<header><CREATION_DATE/><ORIGINATOR/></header><body><segment><metadata><OBJECT_NAME>ONEWEB-0361</OBJECT_NAME><OBJECT_ID>2021-090J</OBJECT_ID><CENTER_NAME>EARTH</CENTER_NAME><REF_FRAME>TEME</REF_FRAME><TIME_SYSTEM>UTC</TIME_SYSTEM><MEAN_ELEMENT_THEORY>SGP4</MEAN_ELEMENT_THEORY></metadata><data><meanElements><EPOCH>2024-07-21T13:11:59.615520</EPOCH><MEAN_MOTION>13.20772585</MEAN_MOTION><ECCENTRICITY>.0001945</ECCENTRICITY><INCLINATION>87.9184</INCLINATION><RA_OF_ASC_NODE>52.8375</RA_OF_ASC_NODE><ARG_OF_PERICENTER>83.9609</ARG_OF_PERICENTER><MEAN_ANOMALY>276.1746</MEAN_ANOMALY></meanElements><tleParameters><EPHEMERIS_TYPE>0</EPHEMERIS_TYPE><CLASSIFICATION_TYPE>U</CLASSIFICATION_TYPE><NORAD_CAT_ID>49287</NORAD_CAT_ID><ELEMENT_SET_NO>999</ELEMENT_SET_NO><REV_AT_EPOCH>13847</REV_AT_EPOCH><BSTAR>.16077E-3</BSTAR><MEAN_MOTION_DOT>.78E-6</MEAN_MOTION_DOT><MEAN_MOTION_DDOT>0</MEAN_MOTION_DDOT></tleParameters></data></segment></body></omm>
<omm id="CCSDS_OMM_VERS" version="2.0">
<header><CREATION_DATE/><ORIGINATOR/></header><body><segment><metadata><OBJECT_NAME>ONEWEB-0362</OBJECT_NAME><OBJECT_ID>2021-090K</OBJECT_ID><CENTER_NAME>EARTH</CENTER_NAME><REF_FRAME>TEME</REF_FRAME><TIME_SYSTEM>UTC</TIME_SYSTEM><MEAN_ELEMENT_THEORY>SGP4</MEAN_ELEMENT_THEORY></metadata><data><meanElements><EPOCH>2024-07-21T17:02:04.962624</EPOCH><MEAN_MOTION>13.19724202</MEAN_MOTION><ECCENTRICITY>.0001496</ECCENTRICITY><INCLINATION>87.9131</INCLINATION><RA_OF_ASC_NODE>83.3734</RA_OF_ASC_NODE><ARG_OF_PERICENTER>73.0949</ARG_OF_PERICENTER><MEAN_ANOMALY>287.0347</MEAN_ANOMALY></meanElements><tleParameters><EPHEMERIS_TYPE>0</EPHEMERIS_TYPE><CLASSIFICATION_TYPE>U</CLASSIFICATION_TYPE><NORAD_CAT_ID>49288</NORAD_CAT_ID><ELEMENT_SET_NO>999</ELEMENT_SET_NO><REV_AT_EPOCH>13518</REV_AT_EPOCH><BSTAR>.10201E-3</BSTAR><MEAN_MOTION_DOT>.54E-6</MEAN_MOTION_DOT><MEAN_MOTION_DDOT>0</MEAN_MOTION_DDOT></tleParameters></data></segment></body></omm>

</ndm>
